OBJECTID_1,OBJECTID,NAME,ADDRESS,EXPLAIN,PRIORITY,X,Y
1,50,بوستان شب بو,خیابان فرشادی ، انتهای خیابان توسلی,بوستان,1,544127.045099999990000,3958876.512000000100000
2,71,مدرسه شعبانی,خیابان فرشادی ، تقاطع کوچه ازگلی,مدرسه,2,544445.240200000000000,3959242.945799999900000
3,73,بوستان خواجه نصیر,تقاطع بلوار وفادار و خیابان دانشگاه,بوستان,1,550998.527099999950000,3956169.559599999800000
4,183,هنرستان نرگس,تقاطع خیابان فرجام و کوچه هنرستان,هنرستان,2,546682.751999999980000,3954837.835099999800000
5,807,زمین ورزشی,خیابان دانشجو (202)، بعد از خیابان طاهری,زمین ورزشی,1,548025.727700000050000,3955762.352599999900000
6,826,مدرسه تربیت,تقاطع خیابان های دانشور (202غربی)و آمینه,مدرسه,2,547964.474399999950000,3955773.219800000100000
7,836,بوستان سبلان,تقاطع بلوار شهید بابائیان و بزرگراه دماوند,بوستان,1,551690.183599999990000,3953561.221899999800000
8,841,بوستان شهید منتظری,جنوب شرقی میدان گلها،بلوار گلستان، تقاطع خیابان گلستان شرقی,بوستان,1,547311.389100000030000,3957533.108300000000000
9,853,پارک جنگلی لویزان,بزرگراه شهید بابایی، بین بلوار هنگام و بلوار گلستان,پارک,1,547329.721499999990000,3958718.983399999800000
10,1186,بوستان معین نژاد,خیابان ناهیدی (جشنواره)، بین خیابان شادالویی و خیابان گودرزی,بوستان,1,548965.427700000000000,3954567.856100000000000
11,1194,بوستان ارغوان,تقاطع بزرگراه رسالت و خیابان میثمی (پروین اعتصامی ),بوستان,1,548607.272099999940000,3954124.799099999900000
12,1199,بوستان بهارک,تقاطع خیابان قانع عبادی (178شرقی) و میرزا زاده,بوستان,1,548246.976099999970000,3954938.853999999800000
13,1200,بوستان گویش,تقاطع خیابان مظفری و خیابان رحیمی طاری,بوستان,1,548651.506399999950000,3955018.761200000100000
14,1207,بوستان شهدای گلستان چهارم,خیابان منصوری، خیابان گلستان چهارم غربی,بوستان,1,542762.029800000020000,3956037.495999999800000
15,1208,بوستان سامان,تقاطع بلوار توکل و خیابان قلیچ خانی,بوستان,1,543711.178700000050000,3956629.308800000200000
16,1231,مدرسه حضرت زهرا (س),خیابان جوانشیر ، ربروی کوچه سنبل,مدرسه,2,543333.917499999980000,3959252.134999999800000
17,1232,مجتمع آموزشی نرجس,خیابان افشاری ، خیابان بوستان دهم,مجتمع آموزشی,2,542673.674099999950000,3957920.157600000000000
18,1233,بوستان سراج,خیابان سراج ، خیابان رحمتی ، کوچه بوستان,بوستان,1,547118.328199999990000,3956580.762800000100000
19,1234,هنرستان سید الشهدا (ع),خیابان سراج ، خیابان محمودی,هنرستان,2,547135.047400000040000,3956420.117500000200000
20,1235,فضای سبز,خیابان پاسداران،نرسیده به خیابان مغان,فضای سبز,1,542258.223200000010000,3959575.521699999900000
21,1237,بوستان گلستان,جنوب غربی میدان گلها، بلوار گلستان,بوستان,1,547209.644399999990000,3957548.461699999900000
22,1251,مدرسه ملاصدرا (امام جعفر صادق),خیابان پایدار فرد، انتهای خیابان گلستان10,مدرسه,1,542363.803100000020000,3959052.007199999900000
23,1252,بوستان نور (کتابخانه حکیمیه ) و فضای باز,تقاطع بهار غربی و خیابان نور,بوستان,1,553085.692099999990000,3954452.390999999800000
24,1255,مدرسه پویا,تقاطع خیابان اسلامی و خیابان توحیدی,مدرسه,2,542212.854199999940000,3958517.619500000000000
25,1259,بوستان صبا,خیابان شهیدان,بوستان,1,553845.950500000040000,3955732.911400000100000
26,1261,بوستان نرگس,میدان لاله ها,بوستان,1,553961.697999999970000,3955620.781000000000000
27,1262,مدرسه فردوسی,خیابان پاسداران، ابتدای نگارستان 4,مدرسه,2,541001.959599999940000,3957052.317600000200000
28,1263,بوستان گمنام,میدان لاله ها,بوستان,1,554161.362500000050000,3955743.039299999800000
29,1267,مدرسه رضوان,خیابان پایدارفرد، انتهای خیابان گلستان 10,مدرسه,2,542391.923900000050000,3959035.200699999900000
30,1269,بوستان آفتابگردان,خیابان شهید جمالو، بین کوچه شهید پاشایی نژاد و والاییان,بوستان,1,546843.913700000030000,3957174.481399999900000
31,1279,بوستان سبز گلستان,بلوار استقلال، تقاطع بلوار گلستان,بوستان,1,547265.558199999970000,3957340.847600000000000
32,1282,مدرسه مفید,خیابان سروش، کوچه نیکوقدم، نرسیده به خیابان سراج,مدرسه,2,547167.021700000040000,3957143.316300000100000
33,1287,بوستان کودک و زمین چمن,خیابان فرخی یزدی،تقاطع کوچه دوم غربی,بوستان,1,541341.229700000030000,3957198.118499999900000
34,1288,زمین ورزشی دانشگاه شهید عباسپور,نبش بلوار عباسپور (بلوار),زمین ورزشی,1,552270.166100000030000,3955566.099400000200000
35,1291,پارک عمومی (فضای باز),خیابان نشوه ، خیابان هشتم غربی,پارک,1,552383.249199999960000,3954633.969899999900000
36,1292,آموزشگاه سروش,تقاطع خیابان پایدارفرد (ابراهیمی)، خیابان بوستان 8,آموزشگاه,1,541658.981299999980000,3958240.593599999800000
37,1293,بوستان ساحل,تقاطع بلوار شهید بابائیان و خیابان افق,بوستان,1,552742.790000000040000,3954080.552000000100000
38,1295,بوستان شکوفه,بلوار شهید عباسپور ، خیابان شکوفه ، نبشه خیابان فروردین,بوستان,1,553471.941200000000000,3955262.686999999900000
39,1296,بوستان صلح و دوستی,خیابان شهیدان,بوستان,1,554644.608499999970000,3955370.476900000100000
40,1307,مدرسه مولوی,خیابان پاسداران، ابتدای خیابان حاج هادی (نگارستان 5),مدرسه,2,541010.614900000040000,3957077.418699999800000
41,1311,مدرسه شهید وزان,خیابان اسلامی، خیابان گلستان 3,مدرسه,2,542257.248000000020000,3958429.551800000000000
42,1145,بوستان گلنار,خیابان قزاقی، انتهای خیابان 208غربی ( حسین کمال ),بوستان,1,547694.765900000000000,3956079.652499999900000
43,1170,مدرسه صالحی شفا،ایثارگران امام حسین,خیابان خواجه عبدا...انصاری، کوچه چگینی ، تقاطع بن بست سنگسر,مدرسه,1,541518.480699999960000,3955530.117900000000000
44,1173,بوستان پلیس,خیابان استخر، بلواراستقلال، خیابان توحید,بوستان,1,548866.423500000030000,3956950.370500000200000
45,1176,مدرسه نور علی,خیابان توحید ، کوچه 16شرقی ، تقاطع خیابان 30 متری توحید,مدرسه,2,548775.494300000020000,3957395.826200000000000
46,1379,بوستان هروی,تقاطع خیابان موسوی وخیابان پناهینیا,بوستان,1,542974.374799999990000,3958250.158400000100000
47,1384,زمین ورزشی شهید مبارکآبادی,خیابان شقاقی ، کوچه بقایی ، تقاطع کوی علیدوست,زمین ورزشی,1,542522.677900000010000,3957157.023000000000000
48,1386,بوستان صبوری,خیابان هنگام، بعد از خیابان کاظمی,بوستان,1,544632.528000000050000,3955796.557800000100000
49,1387,بوستان اقاقیا,خیابان فرجام ، خیابان هنرستان ، بن بست مهدی,بوستان,1,546490.299800000040000,3954865.979299999800000
50,1403,مدرسه شهید مطهری,خیابان احدزاده روبروی کوچه عسگری,مدرسه,2,545643.856700000000000,3954680.260999999900000
51,1406,مدرسه ابو علی سینا,تقاطع خیابان رحمتی و عبادی,مدرسه,2,546320.696699999970000,3954848.105200000100000
52,1410,بوستان شهید شعبانلو,خیابان فرشاد ، خیابان شعبانلو,بوستان,1,544387.247300000050000,3959472.775899999800000
53,1411,مدرسه ثامن الحجج,خیابان فرشادی ، کوچه ازگلی,مدرسه,2,544484.152600000030000,3959195.680999999900000
54,1412,مدرسه عمار,خیابان سلیمی ، کوچه هشتم ، تقاطع کوچه شاه آبادی,مدرسه,2,544728.781700000050000,3959246.700300000100000
55,1413,پارک جنگلی,جنوب بزرگراه بابایی ، تقاطع خیابان استخر,پارک,1,550605.759800000000000,3957565.086199999800000
56,1420,بوستان نارنج,خیابان ابوذر غفاری جنوبی ، خیابان کریمی یارندی,بوستان,1,540631.299000000000000,3955581.379100000000000
57,1421,بوستان رسالت,حاشیه بزرگراه رسالت ، بین خیابان رودخانه  و خیابان ابوذر,بوستان,1,540822.971499999990000,3955462.140999999800000
58,1618,بوستان کاظمی,خیابان هنگام، خیابان بهار,بوستان,1,544556.253299999980000,3955695.336300000100000
59,1622,مدرسه عارف نسب,بزرگراه زین الدین ، نرسیده به خیابان بختیاری,مدرسه,2,549970.757600000010000,3956580.075300000100000
60,1625,بوستان گلسا,خیابان میثمی (پروین اعتصامی) و اسدی رازی (160 شرقی),بوستان,1,548414.638599999950000,3954245.373399999900000
61,1626,بوستان 22 بهمن,تقاطع خیابان ناهیدی (جشواره) و خیابان گودرزی,بوستان,1,548563.037699999990000,3954181.162200000100000
62,1627,گذر سبز شاهد (غربی),خیابان میثمی (پروین اعتصامی)تقاطع خیابان ناهیدی (جشواره),گذر سبز,1,548601.921100000040000,3954491.159500000100000
63,1631,گذر سبز شاهد (شرقی),تقاطع خیابان رضایی و میثمی (پروین اعتصامی ),گذر سبز,1,548721.782000000010000,3954625.646199999800000
64,1634,مجموعه ورزشی شهدای شمیران نو,خیابان هنگام ، خیابان نعمت زاده ، جنب مدرسه راهنمایی  علامه حلی,مجموعه ورزشی,1,545768.703800000020000,3956786.556700000100000
65,1635,دبستان پسرانه محمد باقر صدر,خیابان هنگام ، خیابان نو نوار غربی ، بعد از خیابان غفاری,دبستان,2,545450.666899999950000,3956823.801899999800000
66,1639,بوستان گلشن,خیابان کمیل ، تقاطع خیابان بنی هاشم,بوستان,1,550462.401300000030000,3955487.874900000200000
67,1641,بوستان ابوذر,خیابان زهدی ، تقاطع خیابان لاله,بوستان,1,551491.534800000020000,3955729.504699999900000
68,1642,سالن مجموعه ورزشی گلشن,خیابان کمیل ، تقاطع خیابان تختی,سالن ورزشی,1,550385.666500000050000,3955178.242600000000000
69,1643,مدرسه منصور نفر,تقاطع خیابان زهدی و کوچه مدرسه,مدرسه,2,551169.661700000060000,3955695.761200000100000
70,1644,بوستان فردوس,خیابان هنگام ، خیابان طاهرخانی ، جنب شهرداری منطقه 4,بوستان,1,544278.464200000050000,3955490.924699999900000
71,1649,بوستان صدف,خیابان آزادی ، خیابان شمشاد ، تقاطع کوچه نرگس,بوستان,1,543666.439999999940000,3958220.499400000100000
72,1651,بوستان ارکیده,تقاطع خیابان استاد حسن بنا و کوچه رسولیان,بوستان,1,543338.629599999990000,3957834.840100000100000
73,1658,بوستان باغ رز,خیابان جوانشیر ، روبروی خیابان اردیبهشت,بوستان,1,543564.742199999980000,3959251.741800000000000
74,1432,بوستان احسان,حاشیه بزرگراه رسالت ، ضلع شرقی خیابان رودخانه,بوستان,1,541032.474000000050000,3955402.521999999900000
75,1433,بوستان شاداب,خیابان خواجه عبدا...انصاری ، روبروی خیابان تیسفون,بوستان,1,541028.016500000030000,3955683.901600000000000
76,1437,مدرسه امامت,ابتدای بلوار توکل، بالاتر از بلوار الزهرا,مدرسه,2,543722.900400000040000,3956797.939400000000000
77,1438,بوستان شهید کرد,بزرگراه رسالت، تقاطع خیابان کرد,بوستان,1,543268.796600000000000,3955081.147200000000000
78,1439,بوستان ارژنگ,تقاطع خیابان کمالی و خیابان مظفری,بوستان,1,542957.837799999980000,3955614.614099999900000
79,1442,بوستان شمعدانی,خیابان نو نوار غربی ، خیابان غفاری,بوستان,1,545625.980800000020000,3956971.288900000000000
80,1444,بوستان شقایق,خیابان هنگام ، خیابان نو نوار غربی ، خیابان یاس,بوستان,1,545478.584999999960000,3956956.496499999900000
81,1453,بوستان افتخاریان,خیابان افتخاریان ، تقاطع کوچه پارک,بوستان,1,543680.976600000050000,3958770.188300000000000
82,1462,بوستان نوفل لوشاتو,خیابان رئیسعل دلواری ، نرسیده به خیابان تکاوران,بوستان,1,546153.881799999970000,3956144.180300000100000
83,1463,بوستان دانش,بلوار طباطبایی ، بین خیابان رحمتی وخیابان ثقفی,بوستان,1,547326.781199999970000,3956492.144400000100000
84,1464,زمین ورزشی والائیان,انتهای خیابان والائیان ، کوچه لاله 4,زمین ورزشی,1,546604.300399999950000,3956809.210000000000000
85,1466,مجموعه ورزشی شهید طوقانی,خیابان رئیسعلی دلواری ، نرسیده به خیابان تکاوران,مجموعه ورزشی,2,546007.642600000020000,3956233.930000000200000
86,1467,مدرسه الغدیر 2,خیابان رئیسعلی دلواری ، بعد از تقاطع آزدگان,مدرسه,2,545922.728400000020000,3956287.477400000200000
87,1468,هنرستان فجر,خیابان سراج ،خیابان ممنونی ،روبروی خیابان عبداللهی,هنرستان,2,547226.868299999970000,3956255.051599999900000
88,1469,بوستان ولی عصر (عج),میدان رسالت، خیابان فرجام غربی,بوستان,1,543881.720199999980000,3955434.750800000000000
89,1470,بوستان احدزاده,بین بزرگراه رسالت و خیابان احدزاده,بوستان,1,546466.126900000030000,3954577.870300000100000
90,1531,بوستان یکصدم,خیابان فرجام، خیابان 100,بوستان,1,544950.344000000040000,3955432.947499999800000
91,1535,دبیرستان سمیه,خیابان سراج،کوچه بیات،کوچه خیابانی ،روبروی گلستان 5,دبیرستان,2,546903.491999999970000,3955610.180999999900000
92,1538,مدرسه شهید مفتح,خیابان سراج، کوچه بدیع الزمانی,مدرسه,2,546728.594300000000000,3955200.133800000000000
93,1570,فضای سبز میدان 57,تقاطع خیابان 57  و زمرد غربی,فضای سبز,1,544668.295099999990000,3955026.738700000100000
94,1575,دبیرستان خواجه عبدا...انصاری,خیابان تیسفون ، تقاطع شانزدهم,دبیرستان,1,541051.314000000010000,3955957.346599999800000
95,1577,مدرسه شهید آبشناسان,خیابان شریعتی ، خیابان پیروزنرسیده به خیابان رودخانه,مدرسه,1,540727.970399999990000,3956188.321500000100000
96,1588,بوستان مجیدیه,خیابان منصوری، خیابان ابن علی,بوستان,1,542660.126599999960000,3955762.066199999800000
97,1589,بوستان ملت,خیابان صباح شرقی، بین خیابان توکل و کوچه رضامند,بوستان,1,543647.016700000040000,3956821.226400000000000
98,1590,بوستان دهقان,خیابان کرد، انتهای خیابان کیخسروی,بوستان,1,543675.924800000040000,3955483.424300000100000
99,1591,بوستان شهید جهان نیا,خیابان منصوری، خیابان جهان پناه (غربی2),بوستان,1,542859.193100000030000,3956161.158400000100000
100,1592,بوستان گلریز,خیابان استاد حسن بنا، خیابان جعفری,بوستان,1,542869.632100000050000,3956300.880799999900000
101,1331,مدرسه پورداود,خیابان ناهیدی (جشواره) ابتدای خیابان اخوت,مدرسه,2,548150.506199999950000,3954553.030100000100000
102,1333,مدرسه استاد خدابخش,خیابان ناهیدی (جشواره) و خیابان اخوت,مدرسه,2,548165.667099999960000,3954625.243499999900000
103,1336,مدرسه ملت,خیابان وفادار نرسیده به خیابان سلطانی,مدرسه,2,550241.511000000060000,3956181.556499999900000
104,1339,سالن فوتبال مجموعه ورزشی شهید عراقی,خیابان اخوت تقاطع بن بست اوج,سالن ورزشی,2,548144.837900000040000,3954453.694300000100000
105,1341,مدرسه فرهنگ آل یاسین,تقاطع خیابان حسینی و خیابان ابن علی,مدرسه,2,542508.359199999950000,3955792.580300000000000
106,1347,بوستان غدیر,خیابان هنگام ، جنب شرکت واحد اتوبوسرانی تهران,بوستان,1,544955.567599999950000,3955997.103000000100000
107,1354,دبیرستان آبسال,خیابان هنگام ، خیابان نو نوار شرقی,دبیرستان,2,545507.723400000020000,3956751.953000000200000
108,1356,بوستان شهید بهزادی,خیابان زهدی ، تقاطع خیابان مسعودی,بوستان,1,551153.277699999980000,3955466.083800000100000
109,1357,بوستان ختمی,تقاطع خیابان مرادی و خیابان 12 بهمن,بوستان,1,550716.960800000000000,3955056.952600000000000
110,1358,مدرسه هشت شهریور,خیابان هنگام، خیابان کاظمی,مدرسه,2,544484.124100000020000,3955624.110799999900000
111,1359,دبستان دخترانه تجلی,خیابان هنگام ، خیابان زهرا,دبستان,2,544596.897200000010000,3955481.679500000100000
112,1363,بوستان تولد,خیابان جغریان ، روبه روی کوچه فیوج لعلی,بوستان,1,543934.288300000010000,3959132.609999999900000
113,1366,بوستان شادی,خیابان برادران پناهینیا ، تقاطع خیابان رنجبر و خیابان ضابطی,بوستان,1,542992.856999999960000,3957517.067400000100000
114,1948,بوستان سمیه,خیابان سراج، بین دلاوران و گلستان 7,بوستان,1,547030.706000000010000,3955702.825499999800000
115,1953,دانشگاه علم صنعت,خیابان هنگام، خیابان الغدیر,دانشگاه,1,545770.747300000050000,3955432.817600000200000
116,1671,بوستان کوثر,خیابان قنات کوثر، نبش کوچه دوم غربی,بوستان,1,547633.000099999950000,3956755.853800000200000
117,1672,بوستان میثاق,خیابان قنات کوثر، نبش کوچه 6غربی,بوستان,1,547473.412600000040000,3957086.123100000000000
118,1673,بوستان درختی,خیابان قنات کوثر، بین کوچه 7و8غربی,بوستان,1,547677.163999999990000,3957119.726100000100000
119,1674,بوستان جنبی مدرسه شهریار,روبروی شهرک امید,بوستان,1,547733.140699999990000,3957275.956499999900000
120,1675,پارک ارغوان,شهرک امید,پارک, ,548354.209200000040000,3958206.599100000200000
121,1676,مدرسه هدایت,خیابان قنات کوثر، شهرک امید,مدرسه,1,548245.423799999990000,3957580.434500000000000
122,1677,مدرسه غیاثوند,خیابان قنات کوثر، خیابان یکم مرکزی,مدرسه,2,547677.906800000000000,3956719.344699999800000
123,1678,مدرسه ولایت,خیابان قنات کوثر، شهرک امید,مدرسه,1,548308.576099999950000,3957549.711699999900000
124,1679,مدرسه سعادت,خیابان قنات کوثر، شهرک امید,مدرسه,1,548253.957900000040000,3957634.199200000100000
125,1680,مدرسه شعبانی,خیابان قنات کوثر، خیابان یکم مرکزی,مدرسه,2,547757.700500000040000,3956701.636500000000000
126,1681,مدرسه شهریار,خیابان قنات کوثر ، خیابان یکم مرکزی,مدرسه,2,547739.992300000040000,3957267.873399999900000
127,1686,فرهنگسرای اشراق,خیابان ناهیدی (جشواره)، بین خیابان نقدی و خیابان جعفرپناه,فرهنگسرا,1,549660.773500000010000,3954256.119700000200000
128,1689,بوستان سحر,خیابان شهید برادران ملیسایی، انتهای خیابان آهویی,بوستان,1,549581.278000000050000,3953793.600200000200000
129,1690,بوستان آزاده,خیابان زهدی (خاک سفید)، بین 20متری ولیعصر و کوچه 186شرقی,بوستان,1,550057.648999999980000,3954869.801200000100000
130,1691,بوستان جعفرپناه,خیابان جعفرپناه، بین خیابان نباتی و خیابان همای شرقی,بوستان,1,549982.971400000040000,3954229.018900000000000
131,1760,بوستان یاس,تقاطع خیابان ناهیدی (جشواره) وخیابان اسفندانی,بوستان,1,549289.794299999950000,3954282.618199999900000
132,1763,بوستان فتاحی,تقاطع خیابان فتاحی و کوچه حسن زاده,بوستان,1,548831.189299999970000,3954188.066699999900000
133,1764,مدرسه همای رحمت,خیابان زهدی (خاک سفید)، تقاطع خیابان ملکی,مدرسه,2,550329.262899999970000,3954960.449599999900000
134,1766,مدرسه نیایش,خیابان 35 متری احسان،ابتدای کوچه مرتضوی,مدرسه,2,550707.812799999960000,3954754.397299999800000
135,1769,دبستان طالقانی,خیابان طباطبایی، روبروی خیابان پردیس,دبستان,2,550307.926100000040000,3954592.395000000000000
136,1770,مدرسه راهنمایی طالقانی,خیابان طباطبایی، نرسیده به خیابان احسان,مدرسه,2,550274.802900000010000,3954632.142800000000000
137,1771,مدرسه ابوذر,خیابان طباطبایی، نرسیده به خیابان احسان,مدرسه,2,550321.175300000000000,3954631.540500000100000
138,2190,بوستان اتحاد,خیابان بنی هاشم، کوچه رحیمی,بوستان,1,542109.387100000050000,3955545.195700000000000
139,2191,بوستان امید,خیابان استاد حسن بنا، پشت سازمان آب,بوستان,1,542408.998499999990000,3955917.755900000200000
140,2192,بوستان شاهد,نبش خیابان خسروآبادی,بوستان,1,542697.862899999950000,3956309.075300000100000
141,2193,بوستان رهنمون,خیابان استاد حسن بنا، پایین تراز ملت,بوستان,1,542991.937900000020000,3956789.627299999800000
142,2209,بوستان حسین حامد,خیابان بنی هاشم، نبش کوچه لاله شهرآبادی,بوستان,1,542164.750099999950000,3955883.302999999800000
143,2210,بوستان شفیعی,روبروی سازمان پدافند غیرعامل,بوستان,1,542401.508200000040000,3955817.973300000200000
144,1576,راهنمایی خواجه عبدا...انصاری,خیابان تیسفون ، روبروی خیابان گلایل,راهنمایی,1,541068.238600000040000,3956038.487000000200000
145,1352,مجموعه ورزشی آبفای تهران,خیابان هنگام ، جنب خیابان نعمت زاده,مجموعه ورزشی,1,545750.477399999970000,3956582.368600000200000
146,1372,بوستان سخندان,خیابان شعبانلو ، کوچه فیوج لعلی,بوستان,1,544061.038999999990000,3959353.686300000200000
147,1180,مدرسه معلم,خیابان 30 متری توحید، کوچه نهم غربی ، کوچه بلال,مدرسه,2,548424.281300000030000,3956945.396999999900000
148,1768,مدرسه سعدی,خیابان جعفرپناه، نرسیده به خیابان نباتی,مدرسه,2,549870.700599999980000,3954194.314999999900000
149,1391,مدرسه شهدای پاسداران,خیابان اسلامی، بالاتر از خیابان گیلان,مدرسه,2,541767.465100000030000,3957614.259099999900000
150,1477,مدرسه زینب و ایمان,خیابان خواجه عبدا...انصاری ، انتهای بن بست ایمان,مدرسه,1,541194.336299999970000,3955618.040200000200000
151,1122,بوستان نخل,تقاطع خیابان های 35 متری شکوفه و 212 غربی,بوستان,1,547436.094300000000000,3956104.994400000200000
152,1197,بوستان گلبرک,خیابان حجربن عدی، تقاطع خیابان قانع عبادی (178شرقی),بوستان,1,548057.196400000020000,3954983.801800000000000
153,1258,بوستان ریحانه,خیابان شهید عباسپور ، خیابان شکوفه ابتدای خیابان بهشت,بوستان,1,553803.268599999950000,3955591.120699999900000
154,1435,بوستان سنگسر,کوچه چگینی ، انتهای بن بست سنگسر,بوستان,1,541556.787299999970000,3955441.525100000200000
155,1473,بوستان شبنم,خیابان عبادی ، تقاطع خیابان عبدالهی,بوستان,1,546264.096900000000000,3954752.386500000000000
156,1593,بوستان سینا,خیابان کرد،روبروی خیابان شهید ولی زاده,بوستان,1,543714.390699999990000,3956264.745699999900000
157,1640,بوستان آلاله,خیابان زهدی ، بین کوچه آرش و کوچه کاوه,بوستان,1,551348.902200000010000,3955783.982400000100000
158,56,پارک جنگلی لویزان,خیابان طجرلو ، شایان هفتم,پارک,1,545093.173399999970000,3959797.831999999900000